#dP2018  9 10  0  0  0.00000000      96 __u+U ITR00 FIT  IAC
## 2018  86400.00000000   900.00000000 58371 0.0000000000000
+   88   C01C02C03C04C05C06C07C08C09C10C11C12C13C14E01E02E03
+        E04E05E07E08E09E11E12E14E18E19E24E26E30G01G02G03G04
+        G05G06G07G08G09G10G11G12G13G14G15G16G17G18G19G20G21
+        G22G23G24G25G26G27G28G29G30G31G32J01J02J03R01R02R03
+        R04R05R07R08R09R10R11R13R14R15R16R17R18R19R20R21R22
+        R23R24R26  0  0  0  0  0  0  0  0  0  0  0  0  0  0
++         0  0  0  0  0  0  0  0  0  0  0  0  0  0  0  0  0
++         0  0  0  0  0  0  0  0  0  0  0  0  0  0  0  0  0
++         0  0  0  0  0  0  0  0  0  0  0  0  0  0  0  0  0
++         0  0  0  0  0  0  0  0  0  0  0  0  0  0  0  0  0
++         0  0  0  0  0  0  0  0  0  0  0  0  0  0  0  0  0
++         0  0  0  0  0  0  0  0  0  0  0  0  0  0  0  0  0
%c M  cc GPS ccc cccc cccc cccc cccc ccccc ccccc ccccc ccccc
%c cc cc ccc ccc cccc cccc cccc cccc ccccc ccccc ccccc ccccc
%f  0.0000000  0.000000000  0.00000000000  0.000000000000000
%f  0.0000000  0.000000000  0.00000000000  0.000000000000000
%i    0    0    0    0      0      0      0      0         0
%i    0    0    0    0      0      0      0      0         0
/*                                                          
/*   RSA / INFORMATION & ANALYSIS CENTER (IAC) OF MCC       
/*   ULTRA-RAPID DETERMINATION                              
/* PCV:IGS14_2000 OL/AL:FES2004  NONE     YN ORB:CoN CLK:CoN
*  2018 09 10  8 30  0.00000000
PC01 -32332.206890  27048.604480   -990.461891    -70.409299
PC02   4408.279728  41903.828101   1314.484666     55.773581
PC03 -14783.570552  39497.664911   -388.401400    281.335659
PC04 -39607.895562  14413.520659   -447.792518   -339.868053
PC05  21877.482467  36040.726658   1094.992950   -438.186150
PC06  -7801.032156  33776.183248  24509.904975    286.064764
PC07 -17072.273113  21877.844368 -31722.017017    -14.951908
PC08 -23942.900600  33785.580306   7186.598854    519.853637
PC09   2010.416451  40529.451332  12225.936490    101.435162
PC10  -1982.600616  25521.289323 -33348.099632    -61.086789
PC11 -10278.836808 -16064.498171 -20348.610860   -673.882049
PC12   1868.861166 -27314.970171  -5611.912304    601.433022
PC13 -12246.600290  34889.095509  20034.503531   -270.282512
PC14 -20344.585535 -19021.747510  -1195.827890    367.813850
PE01 -29374.758817    869.409628  -3597.721434   -431.668152
PE02  29358.870070   -907.403230   3653.024398     26.882853
PE03  19084.065412   2264.420882 -22505.860445    -75.462449
PE04  -8617.512438  17699.269085  22111.999806   -114.301833
PE05  18429.884933  21024.727800  -9711.756158    196.394336
PE07  -7006.614464 -27413.958930  -8702.810413    -35.692367
PE08   8302.150670 -17751.606162 -22182.779045   6505.766276
PE09   7260.524283  27311.896356   8785.523114   6680.937785
PE11  -3530.618560  24974.292155  15489.953129   4814.318633
PE12 -17429.984641  23743.851762  -2993.395408   5020.839680
PE14  -9452.008951 -24830.251165 -11180.222967   6521.850279
PE18  -1717.345879  28407.082144  -1842.014275   5917.637100
PE19 -19474.594579  -4339.046780  21870.514783    -12.387630
PE24   3629.551606  16301.626785 -24442.649127   6500.940718
PE26 -12030.112814 -11757.653885 -24359.414413   5494.276223
PE30  18232.734650 -12129.651296  19911.746405   5525.052439
PG01   7643.117067 -19020.616246 -16886.348330    -86.389269
PG02 -21130.407242  15849.920204   -433.189904      2.543981
PG03  -3238.817952 -17132.510783 -20087.345466    134.214067
PG04  24588.485085   7381.980531   7110.497658     97.311841
PG05 -17323.336139   6959.612121  18857.343180     -2.142321
PG06 -21930.520262   2851.932032 -14697.644132    365.494793
PG07  -8400.018152 -12911.892490  21870.500922    126.700640
PG08   6650.681547 -22414.630172  12496.493149   -114.636575
PG09  -7464.925261 -24348.266816   7490.981059    507.241958
PG10  24342.114374  10791.403895  -1162.927488    182.778885
PG11   7029.816232 -24458.091053  -8503.818358   -719.023003
PG12  -2870.226746  15049.427200 -21910.744125    307.979113
PG13 -12440.015438  16065.851649  16988.167043    -89.444460
PG14  15067.388487    -38.031648 -21568.495755    -97.356552
PG15  -2349.082581  24805.843671   8390.898783   -346.287099
PG16  18793.211250  -3131.479589  18524.527183      9.688388
PG17 -13432.132114 -10913.047634 -19792.446765    -57.498648
PG18  14950.719501 -19812.204534  -9700.922366     55.606095
PG19 -14922.910216    684.670810 -22261.587156   -404.032629
PG20  20800.721281  14122.977376   8598.907377    515.570869
PG21  12270.696440  10534.638694  21866.157214   -339.299457
PG22   5391.991274 -14913.926512 -21072.369957   -514.930223
PG23  -1414.104740 -26244.341119  -1293.747163   -211.154878
PG24 -10890.479264  20195.719406 -13236.607018    -55.181223
PG25  12036.858382  17876.837508 -15857.980663   -644.802332
PG26  24181.303692   2664.870137  10818.412104    -24.812887
PG27  12223.159453 -12891.999822  19572.769511    346.351739
PG28 -22193.866556 -14498.546956   1627.236177    743.564979
PG29   4857.940604  25187.771413   6858.553904    379.309552
PG30 -17813.787437  -5330.843608  19047.041116     26.042088
PG31  23156.361334  -4279.577301 -12659.441407     94.594889
PG32  14853.826847   9281.525627 -19951.060768   -427.925720
PJ01 -22386.198386  25848.165250  29810.262193   -110.669225
PJ02 -35765.820150  17846.359727  -8823.137449     -2.931147
PJ03 -19642.985285  28461.365463 -19556.324726      2.380454
PR01 -17830.170812 -11195.705145  14415.329484     31.787087
PR02  -8557.195591   6784.414904  23089.802216    328.965218
PR03   4925.124621  19047.832180  16299.000016    142.867790
PR04  15802.063172  20029.799938   -431.976940    275.656445
PR05  17192.605404   9762.593341 -16119.939196     10.297449
PR07  -5262.484811 -19194.213858 -15900.059898    -46.763278
PR08 -15539.615046 -20225.094386   -157.194130     21.368266
PR09  20513.677636  -8646.178709  12405.723837     27.642386
PR10   5146.584933 -11033.131063  22387.752035     31.402944
PR11 -14391.925683  -7656.619935  19659.005258    -40.403268
PR13 -20756.197856   8685.391224 -12041.469889    -14.526342
PR14  -5274.596128  11312.798499 -22230.295186     30.879364
PR15  10097.913184   8838.839020 -21698.081391    -16.072273
PR16  24717.844082   -494.887074  -6509.708690    101.339515
PR17  -7486.182414  23866.090575   4892.994000    163.045760
PR18   2440.357404  16779.082378  19085.933773     25.150819
PR19  11122.981941    428.248281  22946.096668    -59.222726
PR20  13837.479924 -17353.256109  12536.268031   -351.731215
PR21   7287.821088 -23878.582253  -5318.402597     -2.636342
PR22  -3741.578608 -14888.909530 -20334.306607    -61.784101
PR23 -12494.191253   4173.750195 -21855.184961    177.340724
PR24 -13395.060760  18411.885584 -11537.248148   -171.189471
PR26  13672.107885 -16706.139444  13618.857653     46.394278
EOF
